[
    {
        "Altitude(m)": 706782.1509964901,
        "Argument of Periapsis(deg)": 0.010251109067964361,
        "Eccentricity": 0.0,
        "Inclination(deg)": 45.0,
        "Latitude(deg)": -15.729508728057416,
        "Longitude(deg)": -111.9612896210507,
        "Mean Anomaly(deg)": 337.6525949827327,
        "RAAN(deg)": 4.990323252687617,
        "Satellite Name": "Constellation 1 42",
        "Satellite Number": 42,
        "Semi-Major Axis(m)": 7083131.272910544,
        "Time(s)": 171
    },
    {
        "Altitude(m)": 706770.117648385,
        "Argument of Periapsis(deg)": 0.010311057074209765,
        "Eccentricity": 0.0,
        "Inclination(deg)": 45.0,
        "Latitude(deg)": -15.688079994887955,
        "Longitude(deg)": -111.91920923464612,
        "Mean Anomaly(deg)": 337.7132961229826,
        "RAAN(deg)": 4.990266663522047,
        "Satellite Name": "Constellation 1 42",
        "Satellite Number": 42,
        "Semi-Major Axis(m)": 7083131.272910544,
        "Time(s)": 172
    },
    {
        "Altitude(m)": 706758.0966537083,
        "Argument of Periapsis(deg)": 0.010371005080455171,
        "Eccentricity": 0.0,
        "Inclination(deg)": 45.0,
        "Latitude(deg)": -15.646641263421747,
        "Longitude(deg)": -111.87714737326941,
        "Mean Anomaly(deg)": 337.77399726323256,
        "RAAN(deg)": 4.990210074356478,
        "Satellite Name": "Constellation 1 42",
        "Satellite Number": 42,
        "Semi-Major Axis(m)": 7083131.272910544,
        "Time(s)": 173
    },
    {
        "Altitude(m)": 706746.0880492311,
        "Argument of Periapsis(deg)": 0.010430953086700577,
        "Eccentricity": 0.0,
        "Inclination(deg)": 45.0,
        "Latitude(deg)": -15.605192564868275,
        "Longitude(deg)": -111.83510398224516,
        "Mean Anomaly(deg)": 337.83469840348243,
        "RAAN(deg)": 4.990153485190908,
        "Satellite Name": "Constellation 1 42",
        "Satellite Number": 42,
        "Semi-Major Axis(m)": 7083131.272910544,
        "Time(s)": 174
    },
    {
        "Altitude(m)": 706734.091871663,
        "Argument of Periapsis(deg)": 0.010490901092945983,
        "Eccentricity": 0.0,
        "Inclination(deg)": 45.0,
        "Latitude(deg)": -15.56373393040141,
        "Longitude(deg)": -111.79307900692795,
        "Mean Anomaly(deg)": 337.8953995437323,
        "RAAN(deg)": 4.990096896025339,
        "Satellite Name": "Constellation 1 42",
        "Satellite Number": 42,
        "Semi-Major Axis(m)": 7083131.272910544,
        "Time(s)": 175
    },
    {
        "Altitude(m)": 706722.1081576486,
        "Argument of Periapsis(deg)": 0.010550849099191389,
        "Eccentricity": 0.0,
        "Inclination(deg)": 45.0,
        "Latitude(deg)": -15.522265391159243,
        "Longitude(deg)": -111.75107239270228,
        "Mean Anomaly(deg)": 337.95610068398224,
        "RAAN(deg)": 4.990040306859769,
        "Satellite Name": "Constellation 1 42",
        "Satellite Number": 42,
        "Semi-Major Axis(m)": 7083131.272910544,
        "Time(s)": 176
    },
    {
        "Altitude(m)": 706710.1369437663,
        "Argument of Periapsis(deg)": 0.010610797105436795,
        "Eccentricity": 0.0,
        "Inclination(deg)": 45.0,
        "Latitude(deg)": -15.480786978244588,
        "Longitude(deg)": -111.70908408498263,
        "Mean Anomaly(deg)": 338.0168018242322,
        "RAAN(deg)": 4.9899837176942,
        "Satellite Name": "Constellation 1 42",
        "Satellite Number": 42,
        "Semi-Major Axis(m)": 7083131.272910544,
        "Time(s)": 177
    },
    {
        "Altitude(m)": 706698.178266529,
        "Argument of Periapsis(deg)": 0.0106707451116822,
        "Eccentricity": 0.0,
        "Inclination(deg)": 45.0,
        "Latitude(deg)": -15.439298722724624,
        "Longitude(deg)": -111.6671141973105,
        "Mean Anomaly(deg)": 338.077502964482,
        "RAAN(deg)": 4.98992712852863,
        "Satellite Name": "Constellation 1 42",
        "Satellite Number": 42,
        "Semi-Major Axis(m)": 7083131.272910544,
        "Time(s)": 178
    },
    {
        "Altitude(m)": 706686.2321623993,
        "Argument of Periapsis(deg)": 0.010730693117927606,
        "Eccentricity": 0.0,
        "Inclination(deg)": 45.0,
        "Latitude(deg)": -15.397800655631762,
        "Longitude(deg)": -111.62516233896595,
        "Mean Anomaly(deg)": 338.1382041047319,
        "RAAN(deg)": 4.989870539363061,
        "Satellite Name": "Constellation 1 42",
        "Satellite Number": 42,
        "Semi-Major Axis(m)": 7083131.272910544,
        "Time(s)": 179
    },
    {
        "Altitude(m)": 706674.298667763,
        "Argument of Periapsis(deg)": 0.01079064112417301,
        "Eccentricity": 0.0,
        "Inclination(deg)": 45.0,
        "Latitude(deg)": -15.356292807962724,
        "Longitude(deg)": -111.5832286235502,
        "Mean Anomaly(deg)": 338.19890524498186,
        "RAAN(deg)": 4.989813950197491,
        "Satellite Name": "Constellation 1 42",
        "Satellite Number": 42,
        "Semi-Major Axis(m)": 7083131.272910544,
        "Time(s)": 180
    },
    {
        "Altitude(m)": 706662.377818947,
        "Argument of Periapsis(deg)": 0.010850589130418416,
        "Eccentricity": 0.0,
        "Inclination(deg)": 45.0,
        "Latitude(deg)": -15.314775210679533,
        "Longitude(deg)": -111.54131299659734,
        "Mean Anomaly(deg)": 338.25960638523173,
        "RAAN(deg)": 4.989757361031922,
        "Satellite Name": "Constellation 1 42",
        "Satellite Number": 42,
        "Semi-Major Axis(m)": 7083131.272910544,
        "Time(s)": 181
    },
    {
        "Altitude(m)": 706650.4696522135,
        "Argument of Periapsis(deg)": 0.01091053713666382,
        "Eccentricity": 0.0,
        "Inclination(deg)": 45.0,
        "Latitude(deg)": -15.27324789470915,
        "Longitude(deg)": -111.49941540367122,
        "Mean Anomaly(deg)": 338.3203075254816,
        "RAAN(deg)": 4.989700771866352,
        "Satellite Name": "Constellation 1 42",
        "Satellite Number": 42,
        "Semi-Major Axis(m)": 7083131.272910544,
        "Time(s)": 182
    },
    {
        "Altitude(m)": 706638.5742037556,
        "Argument of Periapsis(deg)": 0.010970485142909228,
        "Eccentricity": 0.0,
        "Inclination(deg)": 45.0,
        "Latitude(deg)": -15.231710890943571,
        "Longitude(deg)": -111.45753579036527,
        "Mean Anomaly(deg)": 338.3810086657315,
        "RAAN(deg)": 4.989644182700783,
        "Satellite Name": "Constellation 1 42",
        "Satellite Number": 42,
        "Semi-Major Axis(m)": 7083131.272910544,
        "Time(s)": 183
    },
    {
        "Altitude(m)": 706626.6915097181,
        "Argument of Periapsis(deg)": 0.011030433149154634,
        "Eccentricity": 0.0,
        "Inclination(deg)": 45.0,
        "Latitude(deg)": -15.19016423024036,
        "Longitude(deg)": -111.4156741023031,
        "Mean Anomaly(deg)": 338.4417098059814,
        "RAAN(deg)": 4.989587593535213,
        "Satellite Name": "Constellation 1 42",
        "Satellite Number": 42,
        "Semi-Major Axis(m)": 7083131.272910544,
        "Time(s)": 184
    },
    {
        "Altitude(m)": 706614.8216061551,
        "Argument of Periapsis(deg)": 0.01109038115540004,
        "Eccentricity": 0.0,
        "Inclination(deg)": 45.0,
        "Latitude(deg)": -15.148607943422252,
        "Longitude(deg)": -111.37383045323502,
        "Mean Anomaly(deg)": 338.50241094623135,
        "RAAN(deg)": 4.989531004369644,
        "Satellite Name": "Constellation 1 42",
        "Satellite Number": 42,
        "Semi-Major Axis(m)": 7083131.272910544,
        "Time(s)": 185
    },
    {
        "Altitude(m)": 706602.9645290892,
        "Argument of Periapsis(deg)": 0.011150329161645444,
        "Eccentricity": 0.0,
        "Inclination(deg)": 45.0,
        "Latitude(deg)": -15.107042061277815,
        "Longitude(deg)": -111.33200445264963,
        "Mean Anomaly(deg)": 338.5631120864812,
        "RAAN(deg)": 4.989474415204074,
        "Satellite Name": "Constellation 1 42",
        "Satellite Number": 42,
        "Semi-Major Axis(m)": 7083131.272910544,
        "Time(s)": 186
    },
    {
        "Altitude(m)": 706591.1203144471,
        "Argument of Periapsis(deg)": 0.01121027716789085,
        "Eccentricity": 0.0,
        "Inclination(deg)": 45.0,
        "Latitude(deg)": -15.06546661456092,
        "Longitude(deg)": -111.29019621435668,
        "Mean Anomaly(deg)": 338.6238132267311,
        "RAAN(deg)": 4.989417826038505,
        "Satellite Name": "Constellation 1 42",
        "Satellite Number": 42,
        "Semi-Major Axis(m)": 7083131.272910544,
        "Time(s)": 187
    },
    {
        "Altitude(m)": 706579.2889981075,
        "Argument of Periapsis(deg)": 0.011270225174136258,
        "Eccentricity": 0.0,
        "Inclination(deg)": 45.0,
        "Latitude(deg)": -15.023881633991166,
        "Longitude(deg)": -111.24840568409832,
        "Mean Anomaly(deg)": 338.68451436698103,
        "RAAN(deg)": 4.989361236872935,
        "Satellite Name": "Constellation 1 42",
        "Satellite Number": 42,
        "Semi-Major Axis(m)": 7083131.272910544,
        "Time(s)": 188
    },
    {
        "Altitude(m)": 706567.4706158849,
        "Argument of Periapsis(deg)": 0.011330173180381662,
        "Eccentricity": 0.0,
        "Inclination(deg)": 45.0,
        "Latitude(deg)": -14.982287150254221,
        "Longitude(deg)": -111.20663280764674,
        "Mean Anomaly(deg)": 338.74521550723097,
        "RAAN(deg)": 4.989304647707366,
        "Satellite Name": "Constellation 1 42",
        "Satellite Number": 42,
        "Semi-Major Axis(m)": 7083131.272910544,
        "Time(s)": 189
    }
]